{"type": "FeatureCollection", "features": [ {"type": "Feature", "properties": {"norad_id": 32289, "name": "YAOGAN-3", "group": "resource", "lat": 23.45834577530727, "lon": 9.685650354274209, "alt_km": 597.3976369858219, "timestamp": "2025-12-12T11:38:31.072793+00:00", "meta": {"OBJECT_NAME": "YAOGAN-3", "OBJECT_ID": "2007-055A", "EPOCH": "2025-12-12T05:05:18.299904", "MEAN_MOTION": 14.89855067, "ECCENTRICITY": 0.0001213, "INCLINATION": 97.8367, "RA_OF_ASC_NODE": 12.8415, "ARG_OF_PERICENTER": 74.9375, "MEAN_ANOMALY": 285.1977, "EPHEMERIS_TYPE": 0, "CLASSIFICATION_TYPE": "U", "NORAD_CAT_ID": 32289, "ELEMENT_SET_NO": 999, "REV_AT_EPOCH": 97801, "BSTAR": 0.0005049, "MEAN_MOTION_DOT": 4.797e-05, "MEAN_MOTION_DDOT": 0}, "tle": {"line1": "1 32289U 07055A   25346.21201736  .00004797  00000+0  50490-3 0  9990", "line2": "2 32289  97.8367  12.8415 0001213  74.9375 285.1977 14.89855067978016"}}, "geometry": {"type": "Point", "coordinates": [9.685650354274209, 23.45834577530727]}}, {"type": "Feature", "properties": {"norad_id": 32376, "name": "COSMO-SKYMED 2", "group": "resource", "lat": -49.51984947457913, "lon": 177.1530106798414, "alt_km": 630.1267960844798, "timestamp": "2025-12-12T11:38:31.072803+00:00", "meta": {"OBJECT_NAME": "COSMO-SKYMED 2", "OBJECT_ID": "2007-059A", "EPOCH": "2025-12-12T03:46:00.206976", "MEAN_MOTION": 14.82165302, "ECCENTRICITY": 0.000151, "INCLINATION": 97.8811, "RA_OF_ASC_NODE": 167.4896, "ARG_OF_PERICENTER": 84.6795, "MEAN_ANOMALY": 275.4591, "EPHEMERIS_TYPE": 0, "CLASSIFICATION_TYPE": "U", "NORAD_CAT_ID": 32376, "ELEMENT_SET_NO": 999, "REV_AT_EPOCH": 97429, "BSTAR": 0.00012297, "MEAN_MOTION_DOT": 9.27e-06, "MEAN_MOTION_DDOT": 0}, "tle": {"line1": "1 32376U 07059A   25346.15694684  .00000927  00000+0  12297-3 0  9996", "line2": "2 32376  97.8811 167.4896 0001510  84.6795 275.4591 14.82165302974290"}}, "geometry": {"type": "Point", "coordinates": [177.1530106798414, -49.51984947457913]}}, {"type": "Feature", "properties": {"norad_id": 32382, "name": "RADARSAT-2", "group": "resource", "lat": -52.63113194869697, "lon": 2.4807953309526747, "alt_km": 799.3312099331888, "timestamp": "2025-12-12T11:38:31.072814+00:00", "meta": {"OBJECT_NAME": "RADARSAT-2", "OBJECT_ID": "2007-061A", "EPOCH": "2025-12-12T03:29:42.658368", "MEAN_MOTION": 14.29981039, "ECCENTRICITY": 0.0001115, "INCLINATION": 98.5801, "RA_OF_ASC_NODE": 350.7442, "ARG_OF_PERICENTER": 85.4978, "MEAN_ANOMALY": 274.6332, "EPHEMERIS_TYPE": 0, "CLASSIFICATION_TYPE": "U", "NORAD_CAT_ID": 32382, "ELEMENT_SET_NO": 999, "REV_AT_EPOCH": 93922, "BSTAR": -1.491e-05, "MEAN_MOTION_DOT": -8.2e-07, "MEAN_MOTION_DDOT": 0}, "tle": {"line1": "1 32382U 07061A   25346.14563262 -.00000082  00000+0 -14910-4 0  9991", "line2": "2 32382  98.5801 350.7442 0001115  85.4978 274.6332 14.29981039939223"}}, "geometry": {"type": "Point", "coordinates": [2.4807953309526747, -52.63113194869697]}}, {"type": "Feature", "properties": {"norad_id": 32783, "name": "CARTOSAT-2A", "group": "resource", "lat": 81.74495512540304, "lon": -72.96063476416099, "alt_km": 624.7894671550948, "timestamp": "2025-12-12T11:38:31.072824+00:00", "meta": {"OBJECT_NAME": "CARTOSAT-2A", "OBJECT_ID": "2008-021A", "EPOCH": "2025-12-12T04:43:47.680896", "MEAN_MOTION": 14.78936799, "ECCENTRICITY": 0.0011939, "INCLINATION": 97.7929, "RA_OF_ASC_NODE": 36.0373, "ARG_OF_PERICENTER": 6.5733, "MEAN_ANOMALY": 353.5633, "EPHEMERIS_TYPE": 0, "CLASSIFICATION_TYPE": "U", "NORAD_CAT_ID": 32783, "ELEMENT_SET_NO": 999, "REV_AT_EPOCH": 95116, "BSTAR": 0.00022405, "MEAN_MOTION_DOT": 1.604e-05, "MEAN_MOTION_DDOT": 0}, "tle": {"line1": "1 32783U 08021A   25346.19707964  .00001604  00000+0  22405-3 0  9993", "line2": "2 32783  97.7929  36.0373 0011939   6.5733 353.5633 14.78936799951160"}}, "geometry": {"type": "Point", "coordinates": [-72.96063476416099, 81.74495512540304]}}, {"type": "Feature", "properties": {"norad_id": 33320, "name": "HUANJING 1A (HJ-1A)", "group": "resource", "lat": -45.903771053283684, "lon": -17.227220163067685, "alt_km": 623.3329135477798, "timestamp": "2025-12-12T11:38:31.072834+00:00", "meta": {"OBJECT_NAME": "HUANJING 1A (HJ-1A)", "OBJECT_ID": "2008-041A", "EPOCH": "2025-12-12T05:22:29.621280", "MEAN_MOTION": 14.83393215, "ECCENTRICITY": 0.0020197, "INCLINATION": 97.6545, "RA_OF_ASC_NODE": 334.5442, "ARG_OF_PERICENTER": 36.1436, "MEAN_ANOMALY": 324.1139, "EPHEMERIS_TYPE": 0, "CLASSIFICATION_TYPE": "U", "NORAD_CAT_ID": 33320, "ELEMENT_SET_NO": 999, "REV_AT_EPOCH": 93068, "BSTAR": 0.00032171, "MEAN_MOTION_DOT": 2.597e-05, "MEAN_MOTION_DDOT": 0}, "tle": {"line1": "1 33320U 08041A   25346.22395395  .00002597  00000+0  32171-3 0  9991", "line2": "2 33320  97.6545 334.5442 0020197  36.1436 324.1139 14.83393215930684"}}, "geometry": {"type": "Point", "coordinates": [-17.227220163067685, -45.903771053283684]}}, {"type": "Feature", "properties": {"norad_id": 33321, "name": "HUANJING 1B (HJ-1B)", "group": "resource", "lat": 3.909581721839133, "lon": 159.01744661514175, "alt_km": 627.2515898090205, "timestamp": "2025-12-12T11:38:31.072845+00:00", "meta": {"OBJECT_NAME": "HUANJING 1B (HJ-1B)", "OBJECT_ID": "2008-041B", "EPOCH": "2025-12-12T05:59:46.664160", "MEAN_MOTION": 14.82820234, "ECCENTRICITY": 0.0038186, "INCLINATION": 97.6403, "RA_OF_ASC_NODE": 338.267, "ARG_OF_PERICENTER": 77.2093, "MEAN_ANOMALY": 283.3384, "EPHEMERIS_TYPE": 0, "CLASSIFICATION_TYPE": "U", "NORAD_CAT_ID": 33321, "ELEMENT_SET_NO": 999, "REV_AT_EPOCH": 93070, "BSTAR": 0.00033419, "MEAN_MOTION_DOT": 2.687e-05, "MEAN_MOTION_DDOT": 0}, "tle": {"line1": "1 33321U 08041B   25346.24984565  .00002687  00000+0  33419-3 0  9993", "line2": "2 33321  97.6403 338.2670 0038186  77.2093 283.3384 14.82820234930700"}}, "geometry": {"type": "Point", "coordinates": [159.01744661514175, 3.909581721839133]}}, {"type": "Feature", "properties": {"norad_id": 33331, "name": "GEOEYE 1", "group": "resource", "lat": 1.7115967479264151, "lon": -121.98642275511774, "alt_km": 680.7710365655039, "timestamp": "2025-12-12T11:38:31.072856+00:00", "meta": {"OBJECT_NAME": "GEOEYE 1", "OBJECT_ID": "2008-042A", "EPOCH": "2025-12-12T04:16:23.824992", "MEAN_MOTION": 14.64811573, "ECCENTRICITY": 0.000274, "INCLINATION": 98.1253, "RA_OF_ASC_NODE": 57.4658, "ARG_OF_PERICENTER": 278.8059, "MEAN_ANOMALY": 81.2834, "EPHEMERIS_TYPE": 0, "CLASSIFICATION_TYPE": "U", "NORAD_CAT_ID": 33331, "ELEMENT_SET_NO": 999, "REV_AT_EPOCH": 92277, "BSTAR": 0.00019042, "MEAN_MOTION_DOT": 9.68e-06, "MEAN_MOTION_DDOT": 0}, "tle": {"line1": "1 33331U 08042A   25346.17805353  .00000968  00000+0  19042-3 0  9990", "line2": "2 33331  98.1253  57.4658 0002740 278.8059  81.2834 14.64811573922773"}}, "geometry": {"type": "Point", "coordinates": [-121.98642275511774, 1.7115967479264151]}}, {"type": "Feature", "properties": {"norad_id": 33396, "name": "THEOS", "group": "resource", "lat": 73.50801580166366, "lon": 13.895702992002144, "alt_km": 817.1847501993034, "timestamp": "2025-12-12T11:38:31.072866+00:00", "meta": {"OBJECT_NAME": "THEOS", "OBJECT_ID": "2008-049A", "EPOCH": "2025-12-12T04:31:19.683264", "MEAN_MOTION": 14.20096102, "ECCENTRICITY": 0.0001146, "INCLINATION": 98.5864, "RA_OF_ASC_NODE": 44.2937, "ARG_OF_PERICENTER": 95.5638, "MEAN_ANOMALY": 264.567, "EPHEMERIS_TYPE": 0, "CLASSIFICATION_TYPE": "U", "NORAD_CAT_ID": 33396, "ELEMENT_SET_NO": 999, "REV_AT_EPOCH": 89142, "BSTAR": 2.4599e-05, "MEAN_MOTION_DOT": 1e-07, "MEAN_MOTION_DDOT": 0}, "tle": {"line1": "1 33396U 08049A   25346.18842226  .00000010  00000+0  24599-4 0  9991", "line2": "2 33396  98.5864  44.2937 0001146  95.5638 264.5670 14.20096102891422"}}, "geometry": {"type": "Point", "coordinates": [13.895702992002144, 73.50801580166366]}}, {"type": "Feature", "properties": {"norad_id": 33412, "name": "COSMO-SKYMED 3", "group": "resource", "lat": 80.70094807516251, "lon": 139.49442140796805, "alt_km": 542.919569048674, "timestamp": "2025-12-12T11:38:31.072876+00:00", "meta": {"OBJECT_NAME": "COSMO-SKYMED 3", "OBJECT_ID": "2008-054A", "EPOCH": "2025-12-12T03:17:18.638592", "MEAN_MOTION": 15.05350511, "ECCENTRICITY": 0.0015962, "INCLINATION": 97.8467, "RA_OF_ASC_NODE": 196.5184, "ARG_OF_PERICENTER": 175.8945, "MEAN_ANOMALY": 184.2414, "EPHEMERIS_TYPE": 0, "CLASSIFICATION_TYPE": "U", "NORAD_CAT_ID": 33412, "ELEMENT_SET_NO": 999, "REV_AT_EPOCH": 92878, "BSTAR": 0.00068061, "MEAN_MOTION_DOT": 9.718e-05, "MEAN_MOTION_DDOT": 0}, "tle": {"line1": "1 33412U 08054A   25346.13702128  .00009718  00000+0  68061-3 0  9992", "line2": "2 33412  97.8467 196.5184 0015962 175.8945 184.2414 15.05350511928786"}}, "geometry": {"type": "Point", "coordinates": [139.49442140796805, 80.70094807516251]}}, {"type": "Feature", "properties": {"norad_id": 33446, "name": "YAOGAN-4", "group": "resource", "lat": 81.65526687484598, "lon": -155.0021343285887, "alt_km": 618.6026272462759, "timestamp": "2025-12-12T11:38:31.072887+00:00", "meta": {"OBJECT_NAME": "YAOGAN-4", "OBJECT_ID": "2008-061A", "EPOCH": "2025-12-11T19:03:10.073376", "MEAN_MOTION": 14.82677773, "ECCENTRICITY": 0.00136364, "INCLINATION": 97.9179, "RA_OF_ASC_NODE": 275.9025, "ARG_OF_PERICENTER": 326.6885, "MEAN_ANOMALY": 33.3469, "EPHEMERIS_TYPE": 0, "CLASSIFICATION_TYPE": "U", "NORAD_CAT_ID": 33446, "ELEMENT_SET_NO": 999, "REV_AT_EPOCH": 91789, "BSTAR": 0.00029431307, "MEAN_MOTION_DOT": 2.323e-05, "MEAN_MOTION_DDOT": 0}, "tle": {"line1": "1 33446U 08061A   25345.79386659  .00002323  00000+0  29431-3 0  9998", "line2": "2 33446  97.9179 275.9025 0013636 326.6885  33.3469 14.82677773917895"}}, "geometry": {"type": "Point", "coordinates": [-155.0021343285887, 81.65526687484598]}}]}